IRIDIUM 921             
1 24873U 97034E   25031.89167456  .00630037  17087-3  13894-2 0  9996
2 24873  86.3610 171.6757 0005925 308.3526  51.7226 15.98047221510763
IRIDIUM 26              
1 24903U 97043A   25031.64076272  .00001077  00000+0  35731-3 0  9992
2 24903  86.4013 167.9345 0002024  99.5511 260.5915 14.36947667437134
IRIDIUM 22              
1 24907U 97043E   25031.80719477  .00000953  00000+0  32277-3 0  9999
2 24907  86.4016 171.2812 0002058  92.9159 267.2273 14.35782965437206
DUMMY MASS 1            
1 24925U 97048A   25031.86824538  .00000993  00000+0  10844-3 0  9995
2 24925  86.3364 198.2931 0004369 270.7613  89.3111 14.86766326484878
DUMMY MASS 2            
1 24926U 97048B   25031.74042036  .00001010  00000+0  11108-3 0  9993
2 24926  86.3363 199.9334 0005257 287.8723  72.1928 14.86519849484637
IRIDIUM 29              
1 24944U 97051A   25031.87702638  .00000993  00000+0  33371-3 0  9997
2 24944  86.3974 201.0041 0002003  85.0866 275.0559 14.36251497433700
IRIDIUM 33              
1 24946U 97051C   25031.71189536  .00000698  00000+0  23959-3 0  9991
2 24946  86.3891 200.3235 0008686 150.9784 209.1896 14.34744642433171
IRIDIUM 28              
1 24948U 97051E   25031.86911055  .00000887  00000+0  29182-3 0  9992
2 24948  86.3984 198.6026 0002138 103.1087 257.0349 14.37189464434269
